[
    {
        "Altitude(m)": 702877.8023740553,
        "Argument of Periapsis(deg)": 0.007973084830638947,
        "Eccentricity": 0.0,
        "Inclination(deg)": 45.0,
        "Latitude(deg)": 5.82019047983306,
        "Longitude(deg)": -111.35147718864272,
        "Mean Anomaly(deg)": 171.7096516532366,
        "RAAN(deg)": 174.99247364097926,
        "Satellite Name": "Constellation 1 780",
        "Satellite Number": 780,
        "Semi-Major Axis(m)": 7083131.272910544,
        "Time(s)": 133
    },
    {
        "Altitude(m)": 702880.6145455232,
        "Argument of Periapsis(deg)": 0.008033032836884352,
        "Eccentricity": 0.0,
        "Inclination(deg)": 45.0,
        "Latitude(deg)": 5.777192130355377,
        "Longitude(deg)": -111.31228148637292,
        "Mean Anomaly(deg)": 171.7703527934865,
        "RAAN(deg)": 174.9924170518137,
        "Satellite Name": "Constellation 1 780",
        "Satellite Number": 780,
        "Semi-Major Axis(m)": 7083131.272910544,
        "Time(s)": 134
    },
    {
        "Altitude(m)": 702883.4473771699,
        "Argument of Periapsis(deg)": 0.008092980843129758,
        "Eccentricity": 0.0,
        "Inclination(deg)": 45.0,
        "Latitude(deg)": 5.734190471486527,
        "Longitude(deg)": -111.27309236573132,
        "Mean Anomaly(deg)": 171.8310539337364,
        "RAAN(deg)": 174.99236046264812,
        "Satellite Name": "Constellation 1 780",
        "Satellite Number": 780,
        "Semi-Major Axis(m)": 7083131.272910544,
        "Time(s)": 135
    },
    {
        "Altitude(m)": 702886.300874985,
        "Argument of Periapsis(deg)": 0.008152928849375162,
        "Eccentricity": 0.0,
        "Inclination(deg)": 45.0,
        "Latitude(deg)": 5.691185529017744,
        "Longitude(deg)": -111.23390977741626,
        "Mean Anomaly(deg)": 171.8917550739863,
        "RAAN(deg)": 174.99230387348257,
        "Satellite Name": "Constellation 1 780",
        "Satellite Number": 780,
        "Semi-Major Axis(m)": 7083131.272910544,
        "Time(s)": 136
    },
    {
        "Altitude(m)": 702889.1750448738,
        "Argument of Periapsis(deg)": 0.008212876855620568,
        "Eccentricity": 0.0,
        "Inclination(deg)": 45.0,
        "Latitude(deg)": 5.648177328727583,
        "Longitude(deg)": -111.19473367214049,
        "Mean Anomaly(deg)": 171.95245621423624,
        "RAAN(deg)": 174.992247284317,
        "Satellite Name": "Constellation 1 780",
        "Satellite Number": 780,
        "Semi-Major Axis(m)": 7083131.272910544,
        "Time(s)": 137
    },
    {
        "Altitude(m)": 702892.0698926476,
        "Argument of Periapsis(deg)": 0.008272824861865974,
        "Eccentricity": 0.0,
        "Inclination(deg)": 45.0,
        "Latitude(deg)": 5.605165896382276,
        "Longitude(deg)": -111.15556400063132,
        "Mean Anomaly(deg)": 172.01315735448608,
        "RAAN(deg)": 174.9921906951514,
        "Satellite Name": "Constellation 1 780",
        "Satellite Number": 780,
        "Semi-Major Axis(m)": 7083131.272910544,
        "Time(s)": 138
    },
    {
        "Altitude(m)": 702894.9854240261,
        "Argument of Periapsis(deg)": 0.00833277286811138,
        "Eccentricity": 0.0,
        "Inclination(deg)": 45.0,
        "Latitude(deg)": 5.5621512577355885,
        "Longitude(deg)": -111.11640071362999,
        "Mean Anomaly(deg)": 172.07385849473602,
        "RAAN(deg)": 174.99213410598585,
        "Satellite Name": "Constellation 1 780",
        "Satellite Number": 780,
        "Semi-Major Axis(m)": 7083131.272910544,
        "Time(s)": 139
    },
    {
        "Altitude(m)": 702897.9216446356,
        "Argument of Periapsis(deg)": 0.008392720874356788,
        "Eccentricity": 0.0,
        "Inclination(deg)": 45.0,
        "Latitude(deg)": 5.519133438529194,
        "Longitude(deg)": -111.0772437618921,
        "Mean Anomaly(deg)": 172.1345596349859,
        "RAAN(deg)": 174.99207751682027,
        "Satellite Name": "Constellation 1 780",
        "Satellite Number": 780,
        "Semi-Major Axis(m)": 7083131.272910544,
        "Time(s)": 140
    },
    {
        "Altitude(m)": 702900.8785600206,
        "Argument of Periapsis(deg)": 0.008452668880602192,
        "Eccentricity": 0.0,
        "Inclination(deg)": 45.0,
        "Latitude(deg)": 5.476112464492474,
        "Longitude(deg)": -111.03809326428407,
        "Mean Anomaly(deg)": 172.19526077523577,
        "RAAN(deg)": 174.9920209276547,
        "Satellite Name": "Constellation 1 780",
        "Satellite Number": 780,
        "Semi-Major Axis(m)": 7083131.272910544,
        "Time(s)": 141
    },
    {
        "Altitude(m)": 702903.8561756195,
        "Argument of Periapsis(deg)": 0.008512616886847598,
        "Eccentricity": 0.0,
        "Inclination(deg)": 45.0,
        "Latitude(deg)": 5.4330883613426435,
        "Longitude(deg)": -110.99894883539555,
        "Mean Anomaly(deg)": 172.25596191548564,
        "RAAN(deg)": 174.99196433848914,
        "Satellite Name": "Constellation 1 780",
        "Satellite Number": 780,
        "Semi-Major Axis(m)": 7083131.272910544,
        "Time(s)": 142
    },
    {
        "Altitude(m)": 702906.8544967949,
        "Argument of Periapsis(deg)": 0.008572564893093004,
        "Eccentricity": 0.0,
        "Inclination(deg)": 45.0,
        "Latitude(deg)": 5.390061154785043,
        "Longitude(deg)": -110.95981059412077,
        "Mean Anomaly(deg)": 172.3166630557356,
        "RAAN(deg)": 174.99190774932356,
        "Satellite Name": "Constellation 1 780",
        "Satellite Number": 780,
        "Semi-Major Axis(m)": 7083131.272910544,
        "Time(s)": 143
    },
    {
        "Altitude(m)": 702909.8735288079,
        "Argument of Periapsis(deg)": 0.008632512899338408,
        "Eccentricity": 0.0,
        "Inclination(deg)": 45.0,
        "Latitude(deg)": 5.347030870513316,
        "Longitude(deg)": -110.92067849127088,
        "Mean Anomaly(deg)": 172.37736419598545,
        "RAAN(deg)": 174.991851160158,
        "Satellite Name": "Constellation 1 780",
        "Satellite Number": 780,
        "Semi-Major Axis(m)": 7083131.272910544,
        "Time(s)": 144
    },
    {
        "Altitude(m)": 702912.913276829,
        "Argument of Periapsis(deg)": 0.008692460905583814,
        "Eccentricity": 0.0,
        "Inclination(deg)": 45.0,
        "Latitude(deg)": 5.30399753420902,
        "Longitude(deg)": -110.88155247767051,
        "Mean Anomaly(deg)": 172.43806533623538,
        "RAAN(deg)": 174.99179457099245,
        "Satellite Name": "Constellation 1 780",
        "Satellite Number": 780,
        "Semi-Major Axis(m)": 7083131.272910544,
        "Time(s)": 145
    },
    {
        "Altitude(m)": 702915.973745946,
        "Argument of Periapsis(deg)": 0.00875240891182922,
        "Eccentricity": 0.0,
        "Inclination(deg)": 45.0,
        "Latitude(deg)": 5.26096117154232,
        "Longitude(deg)": -110.84243250415803,
        "Mean Anomaly(deg)": 172.4987664764853,
        "RAAN(deg)": 174.99173798182684,
        "Satellite Name": "Constellation 1 780",
        "Satellite Number": 780,
        "Semi-Major Axis(m)": 7083131.272910544,
        "Time(s)": 146
    },
    {
        "Altitude(m)": 702919.0549411431,
        "Argument of Periapsis(deg)": 0.008812356918074627,
        "Eccentricity": 0.0,
        "Inclination(deg)": 45.0,
        "Latitude(deg)": 5.217921808171493,
        "Longitude(deg)": -110.80331852158503,
        "Mean Anomaly(deg)": 172.5594676167352,
        "RAAN(deg)": 174.9916813926613,
        "Satellite Name": "Constellation 1 780",
        "Satellite Number": 780,
        "Semi-Major Axis(m)": 7083131.272910544,
        "Time(s)": 147
    },
    {
        "Altitude(m)": 702922.1568673223,
        "Argument of Periapsis(deg)": 0.008872304924320031,
        "Eccentricity": 0.0,
        "Inclination(deg)": 45.0,
        "Latitude(deg)": 5.174879469743634,
        "Longitude(deg)": -110.76421064891359,
        "Mean Anomaly(deg)": 172.6201687569851,
        "RAAN(deg)": 174.9916248034957,
        "Satellite Name": "Constellation 1 780",
        "Satellite Number": 780,
        "Semi-Major Axis(m)": 7083131.272910544,
        "Time(s)": 148
    },
    {
        "Altitude(m)": 702925.2795292881,
        "Argument of Periapsis(deg)": 0.008932252930565437,
        "Eccentricity": 0.0,
        "Inclination(deg)": 45.0,
        "Latitude(deg)": 5.131834181894031,
        "Longitude(deg)": -110.72510850082796,
        "Mean Anomaly(deg)": 172.68086989723494,
        "RAAN(deg)": 174.99156821433016,
        "Satellite Name": "Constellation 1 780",
        "Satellite Number": 780,
        "Semi-Major Axis(m)": 7083131.272910544,
        "Time(s)": 149
    },
    {
        "Altitude(m)": 702928.4229317561,
        "Argument of Periapsis(deg)": 0.008992200936810843,
        "Eccentricity": 0.0,
        "Inclination(deg)": 45.0,
        "Latitude(deg)": 5.088785970246832,
        "Longitude(deg)": -110.6860121963164,
        "Mean Anomaly(deg)": 172.74157103748493,
        "RAAN(deg)": 174.9915116251646,
        "Satellite Name": "Constellation 1 780",
        "Satellite Number": 780,
        "Semi-Major Axis(m)": 7083131.272910544,
        "Time(s)": 150
    },
    {
        "Altitude(m)": 702931.5870793532,
        "Argument of Periapsis(deg)": 0.009052148943056249,
        "Eccentricity": 0.0,
        "Inclination(deg)": 45.0,
        "Latitude(deg)": 5.045734860415173,
        "Longitude(deg)": -110.64692168628345,
        "Mean Anomaly(deg)": 172.80227217773478,
        "RAAN(deg)": 174.991455035999,
        "Satellite Name": "Constellation 1 780",
        "Satellite Number": 780,
        "Semi-Major Axis(m)": 7083131.272910544,
        "Time(s)": 151
    }
]